{
  "norad_id": 58093,
  "name": "STARLINK-30578",
  "history": [
    {
      "epoch": "2026-03-28T22:54:03.576384Z",
      "apogee_km": 483.9509722120729,
      "perigee_km": 482.08734497627665,
      "latitude_deg": -1.204659275978904e-05,
      "longitude_deg": 159.05663922582605,
      "height_km": 482.6402657491744,
      "semi_major_axis_km": 6861.1561585941745,
      "eccentricity": 0.00013581,
      "inclination_deg": 43.0026,
      "raan_deg": 328.9388,
      "arg_perigee_deg": 279.6286,
      "mean_anomaly_deg": 80.4412,
      "mean_motion_rev_day": 15.27589998
    },
    {
      "epoch": "2026-03-29T00:28:12.926784Z",
      "apogee_km": 483.9535585422818,
      "perigee_km": 482.0832075848584,
      "latitude_deg": -3.634795120108198e-05,
      "longitude_deg": 135.08410592170333,
      "height_km": 482.64218001767694,
      "semi_major_axis_km": 6861.155383063569,
      "eccentricity": 0.0001363,
      "inclination_deg": 43.0025,
      "raan_deg": 328.5697,
      "arg_perigee_deg": 279.4263,
      "mean_anomaly_deg": 80.6434,
      "mean_motion_rev_day": 15.27590257
    },
    {
      "epoch": "2026-03-30T01:34:43.492224Z",
      "apogee_km": 484.0401014359759,
      "perigee_km": 482.0517306269103,
      "latitude_deg": -1.2138654234016383e-05,
      "longitude_deg": 111.5166072515646,
      "height_km": 482.58960233850075,
      "semi_major_axis_km": 6861.182916031443,
      "eccentricity": 0.0001449,
      "inclination_deg": 43.0021,
      "raan_deg": 322.6607,
      "arg_perigee_deg": 283.5713,
      "mean_anomaly_deg": 76.4977,
      "mean_motion_rev_day": 15.27581062
    },
    {
      "epoch": "2026-03-30T01:34:43.493088Z",
      "apogee_km": 484.04044449512094,
      "perigee_km": 482.0513875677643,
      "latitude_deg": -8.29158750483234e-06,
      "longitude_deg": 111.51660774404755,
      "height_km": 482.58952184673404,
      "semi_major_axis_km": 6861.182916031443,
      "eccentricity": 0.00014495,
      "inclination_deg": 43.0021,
      "raan_deg": 322.6607,
      "arg_perigee_deg": 283.5713,
      "mean_anomaly_deg": 76.4977,
      "mean_motion_rev_day": 15.27581062
    },
    {
      "epoch": "2026-03-30T07:51:21.052800Z",
      "apogee_km": 483.94398492689106,
      "perigee_km": 482.15692004301764,
      "latitude_deg": -9.078610783011836e-06,
      "longitude_deg": 15.62451707373805,
      "height_km": 482.62780627690364,
      "semi_major_axis_km": 6861.1874524849545,
      "eccentricity": 0.00013023,
      "inclination_deg": 43.0025,
      "raan_deg": 321.1829,
      "arg_perigee_deg": 282.9043,
      "mean_anomaly_deg": 77.1663,
      "mean_motion_rev_day": 15.27579547
    },
    {
      "epoch": "2026-03-30T21:58:45.723072Z",
      "apogee_km": 483.75146451472574,
      "perigee_km": 482.37963567685983,
      "latitude_deg": -1.8940740025435064e-05,
      "longitude_deg": 159.86978209967012,
      "height_km": 482.70630323714306,
      "semi_major_axis_km": 6861.2025500957925,
      "eccentricity": 9.997e-05,
      "inclination_deg": 43.0003,
      "raan_deg": 317.861,
      "arg_perigee_deg": 281.4058,
      "mean_anomaly_deg": 78.6681,
      "mean_motion_rev_day": 15.27574505
    },
    {
      "epoch": "2026-03-31T07:23:42.423360Z",
      "apogee_km": 483.78300257909905,
      "perigee_km": 482.36684843767307,
      "latitude_deg": 6.590326396864177e-06,
      "longitude_deg": 16.030467540771987,
      "height_km": 482.679135912565,
      "semi_major_axis_km": 6861.211925508385,
      "eccentricity": 0.0001032,
      "inclination_deg": 43.0027,
      "raan_deg": 315.6446,
      "arg_perigee_deg": 284.0981,
      "mean_anomaly_deg": 75.9756,
      "mean_motion_rev_day": 15.27571374
    },
    {
      "epoch": "2026-04-01T21:03:27.790272Z",
      "apogee_km": 484.05022343415385,
      "perigee_km": 482.07694214654384,
      "latitude_deg": 1.6814253343988141e-06,
      "longitude_deg": 160.6814874598345,
      "height_km": 482.8776111703066,
      "semi_major_axis_km": 6861.200582790349,
      "eccentricity": 0.0001438,
      "inclination_deg": 43.0026,
      "raan_deg": 306.7814,
      "arg_perigee_deg": 267.8502,
      "mean_anomaly_deg": 92.2185,
      "mean_motion_rev_day": 15.27575162
    },
    {
      "epoch": "2026-04-02T20:35:47.577120Z",
      "apogee_km": 483.8607409740698,
      "perigee_km": 482.1893618983395,
      "latitude_deg": 9.65972375529564e-06,
      "longitude_deg": 161.09424613317034,
      "height_km": 482.6347202880825,
      "semi_major_axis_km": 6861.162051436204,
      "eccentricity": 0.0001218,
      "inclination_deg": 43.0028,
      "raan_deg": 301.2433,
      "arg_perigee_deg": 281.5408,
      "mean_anomaly_deg": 78.5307,
      "mean_motion_rev_day": 15.2758803
    },
    {
      "epoch": "2026-04-02T22:09:56.928384Z",
      "apogee_km": 483.8720848455314,
      "perigee_km": 482.17600583512376,
      "latitude_deg": -2.9639967608722603e-05,
      "longitude_deg": 137.12159327997583,
      "height_km": 482.6147093009077,
      "semi_major_axis_km": 6861.161045340327,
      "eccentricity": 0.0001236,
      "inclination_deg": 43.003,
      "raan_deg": 300.8741,
      "arg_perigee_deg": 282.6861,
      "mean_anomaly_deg": 77.3852,
      "mean_motion_rev_day": 15.27588366
    },
    {
      "epoch": "2026-04-03T13:51:31.832928Z",
      "apogee_km": 484.00631252418043,
      "perigee_km": 482.10439000440965,
      "latitude_deg": -1.4826086616336895e-05,
      "longitude_deg": -102.60951631556019,
      "height_km": 482.7632944064951,
      "semi_major_axis_km": 6861.192351264294,
      "eccentricity": 0.0001386,
      "inclination_deg": 43.0025,
      "raan_deg": 297.1829,
      "arg_perigee_deg": 274.163,
      "mean_anomaly_deg": 85.9063,
      "mean_motion_rev_day": 15.27577911
    },
    {
      "epoch": "2026-04-04T14:58:01.483392Z",
      "apogee_km": 484.13168462871636,
      "perigee_km": 481.94708606762197,
      "latitude_deg": 5.838000727323438e-06,
      "longitude_deg": -126.17349712634343,
      "height_km": 482.9651882618778,
      "semi_major_axis_km": 6861.176385348169,
      "eccentricity": 0.0001592,
      "inclination_deg": 43.0011,
      "raan_deg": 291.2736,
      "arg_perigee_deg": 262.1675,
      "mean_anomaly_deg": 97.8996,
      "mean_motion_rev_day": 15.27583243
    },
    {
      "epoch": "2026-04-05T12:56:13.599456Z",
      "apogee_km": 484.17288615947837,
      "perigee_km": 481.98594203964785,
      "latitude_deg": 1.4371431322211676e-05,
      "longitude_deg": -101.79625011244534,
      "height_km": 483.008631165619,
      "semi_major_axis_km": 6861.216414099563,
      "eccentricity": 0.00015937,
      "inclination_deg": 43.0009,
      "raan_deg": 286.1036,
      "arg_perigee_deg": 261.9942,
      "mean_anomaly_deg": 98.0729,
      "mean_motion_rev_day": 15.27569875
    },
    {
      "epoch": "2026-04-05T19:12:51.209280Z",
      "apogee_km": 484.18973379736417,
      "perigee_km": 481.9639560260757,
      "latitude_deg": 1.0398967194588921e-05,
      "longitude_deg": 162.31214567765826,
      "height_km": 483.01972939115217,
      "semi_major_axis_km": 6861.21384491172,
      "eccentricity": 0.0001622,
      "inclination_deg": 43.0009,
      "raan_deg": 284.6265,
      "arg_perigee_deg": 261.4248,
      "mean_anomaly_deg": 98.642,
      "mean_motion_rev_day": 15.27570733
    },
    {
      "epoch": "2026-04-05T22:21:09.994752Z",
      "apogee_km": 484.1487522836878,
      "perigee_km": 482.0007813279717,
      "latitude_deg": 3.030752123950756e-05,
      "longitude_deg": 114.36619814363154,
      "height_km": 483.0228310151305,
      "semi_major_axis_km": 6861.21176680583,
      "eccentricity": 0.00015653,
      "inclination_deg": 43.0006,
      "raan_deg": 283.8877,
      "arg_perigee_deg": 260.8274,
      "mean_anomaly_deg": 99.2401,
      "mean_motion_rev_day": 15.27571427
    },
    {
      "epoch": "2026-04-07T12:00:55.311552Z",
      "apogee_km": 484.1785518170491,
      "perigee_km": 481.9349414618973,
      "latitude_deg": 7.404206310868192e-05,
      "longitude_deg": -100.98212681726723,
      "height_km": 482.981960155684,
      "semi_major_axis_km": 6861.193746639473,
      "eccentricity": 0.0001635,
      "inclination_deg": 43.0007,
      "raan_deg": 275.0249,
      "arg_perigee_deg": 262.4043,
      "mean_anomaly_deg": 97.6624,
      "mean_motion_rev_day": 15.27577445
    },
    {
      "epoch": "2026-04-08T11:33:16.009056Z",
      "apogee_km": 484.2214034295139,
      "perigee_km": 481.879405720837,
      "latitude_deg": 1.2845970487821807e-05,
      "longitude_deg": -100.57465040179314,
      "height_km": 482.9308414850657,
      "semi_major_axis_km": 6861.187404575176,
      "eccentricity": 0.00017067,
      "inclination_deg": 43.0004,
      "raan_deg": 269.4854,
      "arg_perigee_deg": 264.931,
      "mean_anomaly_deg": 95.1347,
      "mean_motion_rev_day": 15.27579563
    },
    {
      "epoch": "2026-04-09T20:30:32.774400Z",
      "apogee_km": 484.0268511732447,
      "perigee_km": 482.04699082660045,
      "latitude_deg": 3.39305626304183e-05,
      "longitude_deg": 116.00031271950061,
      "height_km": 482.69411434654313,
      "semi_major_axis_km": 6861.173920999922,
      "eccentricity": 0.00014428,
      "inclination_deg": 43.003,
      "raan_deg": 261.7336,
      "arg_perigee_deg": 276.9557,
      "mean_anomaly_deg": 83.1131,
      "mean_motion_rev_day": 15.27584066
    },
    {
      "epoch": "2026-04-11T16:26:56.266080Z",
      "apogee_km": 483.77827362040443,
      "perigee_km": 482.3634925549122,
      "latitude_deg": 6.2319580987091276e-06,
      "longitude_deg": 164.75795142947737,
      "height_km": 483.05869537929937,
      "semi_major_axis_km": 6861.207883087658,
      "eccentricity": 0.0001031,
      "inclination_deg": 43.0014,
      "raan_deg": 251.3937,
      "arg_perigee_deg": 252.6168,
      "mean_anomaly_deg": 107.4571,
      "mean_motion_rev_day": 15.27572724
    }
  ]
}